[
  {
    "address1": "400 W Canal St.",
    "city": "Milwaukee",
    "state": "WI",
    "zip": 53201
  },
  {
    "address1": "181 S 2nd St.",
    "city": "Milwaukee",
    "state": "WI",
    "zip": 53204
  },
  {
    "address1": "422 N 5th St",
    "city": "Milwaukee",
    "state": "WI",
    "zip": 53203
  },
  {
    "address1": "1200 W Canal St",
    "city": "Milwaukee",
    "state": "WI",
    "zip": 53233
  },
  {
    "address1": "1712 W Pierce St.",
    "city": "Milwaukee",
    "state": "WI",
    "zip": 53204
  },
  {
    "address1": "1035 S. Cesar E Chavez Dr.",
    "city": "Milwaukee",
    "state": "WI",
    "zip": 53204
  },
  {
    "address1": "1704 S Pearl St",
    "city": "Milwaukee",
    "state": "WI",
    "zip": 53204
  },
  {
    "address1": "2131 S Muskego ave #2543",
    "city": "Milwaukee",
    "state": "WI",
    "zip": 53215
  },
  {
    "address1": "1933 W Windlake Ave",
    "city": "Milwaukee",
    "state": "WI",
    "zip": 53215
  },
  {
    "address1": "3086 s 20th st",
    "city": "Milwaukee",
    "state": "WI",
    "zip": 53215
  },
  {
    "address1": "3400 S 27th St",
    "city": "Milwaukee",
    "state": "WI",
    "zip": 53215
  },
  {
    "address1": "3322 W loomis RD",
    "city": "Milwaukee",
    "state": "WI",
    "zip": 53221
  },
  {
    "address1": "3400 w Loomis rd",
    "city": "Milwaukee",
    "state": "WI",
    "zip": 53221
  },
  {
    "address1": "4060 w loomis rd",
    "city": "Milwaukee",
    "state": "WI",
    "zip": 53221
  },
  {
    "address1": "4305 W Layton ave",
    "city": "Milwaukee",
    "state": "WI",
    "zip": 53220
  },
  {
    "address1": "4930 W Loomis Rd",
    "city": "Milwaukee",
    "state": "WI",
    "zip": 53220
  },
  {
    "address1": "4309 W Grange ave",
    "city": "Milwaukee",
    "state": "WI",
    "zip": 53220
  },
  {
    "address1": "6421 S 27th St",
    "city": "Milwaukee",
    "state": "WI",
    "zip": 53132
  },
  {
    "address1": "6840 S 27th st",
    "city": "Milwaukee",
    "state": "WI",
    "zip": 53154
  },
  {
    "address1": "6874 South 13th St",
    "city": "Oak Creek",
    "state": "WI",
    "zip": 53154
  },
  {
    "address1": "6181 S Howell ave",
    "city": "Milwaukee",
    "state": "WI",
    "zip": 53207
  },
  {
    "address1": "513 N Chicago Ave",
    "city": "South Milwaukee",
    "state": "WI",
    "zip": 53172
  },
  {
    "address1": "1215 N Chicago Ave",
    "city": "South Milwaukee",
    "state": "WI",
    "zip": 53172
  },
  {
    "address1": "901 Milwaukee Ave",
    "city": "South Milwaukee",
    "state": "WI",
    "zip": 53172
  },
  {
    "address1": "8469 S Howell Ave",
    "city": "Oak Creek",
    "state": "WI",
    "zip": 53154
  },
  {
    "address1": "7974 S Main St",
    "city": "Oak Creek",
    "state": "WI",
    "zip": 53154
  },
  {
    "address1": "623 S 2nd St.",
    "city": "Milwaukee",
    "state": "WI",
    "zip": 53204
  }
]
